FENGYUN 1C DEB          
1 31169U 99025BHX 17345.28455283  .00000747  00000-0  47555-3 0  9999
2 31169  99.0327 286.1799 0077292 296.2601  63.0639 14.05391604547711
